{
  "type": "FeatureCollection",
  "features": [
    {
      "type": "Feature",
      "properties": {
        "norad_id": 37781,
        "name": "HAIYANG-2A",
        "group": "resource",
        "lat": 16.768065990816407,
        "lon": -7.624858858000216,
        "alt_km": 967.7645202662952,
        "timestamp": "2025-12-20T09:36:01.288489+00:00",
        "meta_object_name": "HAIYANG-2A",
        "meta_object_id": "2011-043A",
        "meta_epoch": "2025-12-20T04:17:36.961728",
        "meta_mean_motion": 13.78836711,
        "meta_eccentricity": 0.0001656,
        "meta_inclination": 99.3371,
        "meta_ra_of_asc_node": 354.9989,
        "meta_arg_of_pericenter": 73.6723,
        "meta_mean_anomaly": 286.4611,
        "meta_ephemeris_type": 0,
        "meta_classification_type": "U",
        "meta_norad_cat_id": 37781,
        "meta_element_set_no": 999,
        "meta_rev_at_epoch": 72201,
        "meta_bstar": 0.00028575,
        "meta_mean_motion_dot": 2.47e-06,
        "meta_mean_motion_ddot": 0,
        "tle_line1": "1 37781U 11043A   25354.17890002  .00000247  00000+0  28575-3 0  9993",
        "tle_line2": "2 37781  99.3371 354.9989 0001656  73.6723 286.4611 13.78836711722018"
      },
      "geometry": {
        "type": "Point",
        "coordinates": [
          -7.624858858000216,
          16.768065990816407
        ]
      }
    },
    {
      "type": "Feature",
      "properties": {
        "norad_id": 37791,
        "name": "RASAT",
        "group": "resource",
        "lat": 65.07484309945428,
        "lon": 65.77870513104081,
        "alt_km": 647.5432027409252,
        "timestamp": "2025-12-20T09:36:01.288499+00:00",
        "meta_object_name": "RASAT",
        "meta_object_id": "2011-044D",
        "meta_epoch": "2025-12-20T06:07:41.426112",
        "meta_mean_motion": 14.67919556,
        "meta_eccentricity": 0.002154,
        "meta_inclination": 98.0652,
        "meta_ra_of_asc_node": 83.4017,
        "meta_arg_of_pericenter": 42.3794,
        "meta_mean_anomaly": 339.826,
        "meta_ephemeris_type": 0,
        "meta_classification_type": "U",
        "meta_norad_cat_id": 37791,
        "meta_element_set_no": 999,
        "meta_rev_at_epoch": 76693,
        "meta_bstar": 9.3291e-05,
        "meta_mean_motion_dot": 4.86e-06,
        "meta_mean_motion_ddot": 0,
        "tle_line1": "1 37791U 11044D   25354.25534058  .00000486  00000+0  93291-4 0  9993",
        "tle_line2": "2 37791  98.0652  83.4017 0021540  42.3794 339.8260 14.67919556766938"
      },
      "geometry": {
        "type": "Point",
        "coordinates": [
          65.77870513104081,
          65.07484309945428
        ]
      }
    },
    {
      "type": "Feature",
      "properties": {
        "norad_id": 37841,
        "name": "SRMSAT",
        "group": "resource",
        "lat": -7.994224701956522,
        "lon": -95.659497738521,
        "alt_km": 861.2295831254914,
        "timestamp": "2025-12-20T09:36:01.288509+00:00",
        "meta_object_name": "SRMSAT",
        "meta_object_id": "2011-058D",
        "meta_epoch": "2025-12-19T14:40:57.595008",
        "meta_mean_motion": 14.11513672,
        "meta_eccentricity": 0.0011928,
        "meta_inclination": 19.9723,
        "meta_ra_of_asc_node": 66.3596,
        "meta_arg_of_pericenter": 29.0252,
        "meta_mean_anomaly": 120.8933,
        "meta_ephemeris_type": 0,
        "meta_classification_type": "U",
        "meta_norad_cat_id": 37841,
        "meta_element_set_no": 999,
        "meta_rev_at_epoch": 73241,
        "meta_bstar": 6.4258e-05,
        "meta_mean_motion_dot": 3.83e-06,
        "meta_mean_motion_ddot": 0,
        "tle_line1": "1 37841U 11058D   25353.61177772  .00000383  00000+0  64258-4 0  9996",
        "tle_line2": "2 37841  19.9723  66.3596 0011928  29.0252 120.8933 14.11513672732416"
      },
      "geometry": {
        "type": "Point",
        "coordinates": [
          -95.659497738521,
          -7.994224701956522
        ]
      }
    },
    {
      "type": "Feature",
      "properties": {
        "norad_id": 38012,
        "name": "PLEIADES 1A",
        "group": "resource",
        "lat": -35.690148855610026,
        "lon": 72.98287265571223,
        "alt_km": 704.3861545421269,
        "timestamp": "2025-12-20T09:36:01.288520+00:00",
        "meta_object_name": "PLEIADES 1A",
        "meta_object_id": "2011-076F",
        "meta_epoch": "2025-12-20T04:55:50.962080",
        "meta_mean_motion": 14.58567927,
        "meta_eccentricity": 0.0001142,
        "meta_inclination": 98.1823,
        "meta_ra_of_asc_node": 66.8591,
        "meta_arg_of_pericenter": 75.8272,
        "meta_mean_anomaly": 307.1531,
        "meta_ephemeris_type": 0,
        "meta_classification_type": "U",
        "meta_norad_cat_id": 38012,
        "meta_element_set_no": 999,
        "meta_rev_at_epoch": 74590,
        "meta_bstar": 7.9501e-05,
        "meta_mean_motion_dot": 3.24e-06,
        "meta_mean_motion_ddot": 0,
        "tle_line1": "1 38012U 11076F   25354.20545095  .00000324  00000+0  79501-4 0  9992",
        "tle_line2": "2 38012  98.1823  66.8591 0001142  75.8272 307.1531 14.58567927745900"
      },
      "geometry": {
        "type": "Point",
        "coordinates": [
          72.98287265571223,
          -35.690148855610026
        ]
      }
    },
    {
      "type": "Feature",
      "properties": {
        "norad_id": 38038,
        "name": "ZIYUAN 1-02C (ZY 1-02C)",
        "group": "resource",
        "lat": 25.571228910246393,
        "lon": 56.20214981314587,
        "alt_km": 764.4171853101279,
        "timestamp": "2025-12-20T09:36:01.288530+00:00",
        "meta_object_name": "ZIYUAN 1-02C (ZY 1-02C)",
        "meta_object_id": "2011-079A",
        "meta_epoch": "2025-12-20T04:54:04.739328",
        "meta_mean_motion": 14.38019719,
        "meta_eccentricity": 0.0007435,
        "meta_inclination": 98.4331,
        "meta_ra_of_asc_node": 60.0807,
        "meta_arg_of_pericenter": 119.0109,
        "meta_mean_anomaly": 334.0362,
        "meta_ephemeris_type": 0,
        "meta_classification_type": "U",
        "meta_norad_cat_id": 38038,
        "meta_element_set_no": 999,
        "meta_rev_at_epoch": 73348,
        "meta_bstar": 0.0001086,
        "meta_mean_motion_dot": 2.85e-06,
        "meta_mean_motion_ddot": 0,
        "tle_line1": "1 38038U 11079A   25354.20422152  .00000285  00000+0  10860-3 0  9999",
        "tle_line2": "2 38038  98.4331  60.0807 0007435 119.0109 334.0362 14.38019719733482"
      },
      "geometry": {
        "type": "Point",
        "coordinates": [
          56.20214981314587,
          25.571228910246393
        ]
      }
    },
    {
      "type": "Feature",
      "properties": {
        "norad_id": 38338,
        "name": "ARIRANG-3 (KOMPSAT-3)",
        "group": "resource",
        "lat": -50.984168643328196,
        "lon": -40.530287281751306,
        "alt_km": 691.0807571246642,
        "timestamp": "2025-12-20T09:36:01.288540+00:00",
        "meta_object_name": "ARIRANG-3 (KOMPSAT-3)",
        "meta_object_id": "2012-025B",
        "meta_epoch": "2025-12-20T03:15:53.964864",
        "meta_mean_motion": 14.61721587,
        "meta_eccentricity": 0.0004906,
        "meta_inclination": 98.3333,
        "meta_ra_of_asc_node": 308.7814,
        "meta_arg_of_pericenter": 313.0694,
        "meta_mean_anomaly": 47.0095,
        "meta_ephemeris_type": 0,
        "meta_classification_type": "U",
        "meta_norad_cat_id": 38338,
        "meta_element_set_no": 999,
        "meta_rev_at_epoch": 72518,
        "meta_bstar": 8.5915e-05,
        "meta_mean_motion_dot": 3.8e-06,
        "meta_mean_motion_ddot": 0,
        "tle_line1": "1 38338U 12025B   25354.13604126  .00000380  00000+0  85915-4 0  9999",
        "tle_line2": "2 38338  98.3333 308.7814 0004906 313.0694  47.0095 14.61721587725182"
      },
      "geometry": {
        "type": "Point",
        "coordinates": [
          -40.530287281751306,
          -50.984168643328196
        ]
      }
    },
    {
      "type": "Feature",
      "properties": {
        "norad_id": 38709,
        "name": "EXACTVIEW-1 (ADS-1B)",
        "group": "resource",
        "lat": 12.661926681972782,
        "lon": 100.91850040583246,
        "alt_km": 804.3482961900336,
        "timestamp": "2025-12-20T09:36:01.288551+00:00",
        "meta_object_name": "EXACTVIEW-1 (ADS-1B)",
        "meta_object_id": "2012-039C",
        "meta_epoch": "2025-12-19T21:44:37.095360",
        "meta_mean_motion": 14.24910684,
        "meta_eccentricity": 0.0010313,
        "meta_inclination": 98.9639,
        "meta_ra_of_asc_node": 102.4464,
        "meta_arg_of_pericenter": 333.0281,
        "meta_mean_anomaly": 27.036,
        "meta_ephemeris_type": 0,
        "meta_classification_type": "U",
        "meta_norad_cat_id": 38709,
        "meta_element_set_no": 999,
        "meta_rev_at_epoch": 69717,
        "meta_bstar": 6.0667e-05,
        "meta_mean_motion_dot": 9.5e-07,
        "meta_mean_motion_ddot": 0,
        "tle_line1": "1 38709U 12039C   25353.90598490  .00000095  00000+0  60667-4 0  9996",
        "tle_line2": "2 38709  98.9639 102.4464 0010313 333.0281  27.0360 14.24910684697179"
      },
      "geometry": {
        "type": "Point",
        "coordinates": [
          100.91850040583246,
          12.661926681972782
        ]
      }
    }
  ]
}